STARLINK-31815          
1 59801U 24093V   26068.42716813  .00000738  00000+0  36342-4 0  9994
2 59801  43.0003 210.5145 0001358 281.4002  78.6697 15.27576930102659
TEVEL2-9                
1 63237U 25052AD  26068.70229538  .00018694  00000+0  67240-3 0  9992
2 63237  97.4057 324.3929 0007990 124.2475 235.9522 15.28633834 54816
